[
    {
        "Altitude(m)": 611965.1670054642,
        "Argument of Periapsis(deg)": 0.0,
        "Eccentricity": 0.0,
        "Inclination(deg)": 60.0,
        "Latitude(deg)": 59.14010593923106,
        "Longitude(deg)": -86.03018856629242,
        "Mean Anomaly(deg)": -278.1818,
        "RAAN(deg)": 300.0,
        "Satellite Name": "Test1 1325",
        "Satellite Number": 1325,
        "Semi-Major Axis(m)": 6980739.136638005,
        "Time(s)": 0
    },
    {
        "Altitude(m)": 611995.7925886934,
        "Argument of Periapsis(deg)": 0.00010418945913296404,
        "Eccentricity": 0.0,
        "Inclination(deg)": 60.0,
        "Latitude(deg)": 59.28320601396808,
        "Longitude(deg)": -84.89682826869532,
        "Mean Anomaly(deg)": -277.5616938545382,
        "RAAN(deg)": 299.99957995086027,
        "Satellite Name": "Test1 1325",
        "Satellite Number": 1325,
        "Semi-Major Axis(m)": 6980739.136638005,
        "Time(s)": 10
    },
    {
        "Altitude(m)": 612024.0772927973,
        "Argument of Periapsis(deg)": 0.0002083789182659281,
        "Eccentricity": 0.0,
        "Inclination(deg)": 60.0,
        "Latitude(deg)": 59.41562406325806,
        "Longitude(deg)": -83.7539444844738,
        "Mean Anomaly(deg)": -276.9415877090764,
        "RAAN(deg)": 299.99915990172053,
        "Satellite Name": "Test1 1325",
        "Satellite Number": 1325,
        "Semi-Major Axis(m)": 6980739.136638005,
        "Time(s)": 20
    },
    {
        "Altitude(m)": 612050.0048988848,
        "Argument of Periapsis(deg)": 0.00031256837739889213,
        "Eccentricity": 0.0,
        "Inclination(deg)": 60.0,
        "Latitude(deg)": 59.53722066293418,
        "Longitude(deg)": -82.60216521590463,
        "Mean Anomaly(deg)": -276.32148156361444,
        "RAAN(deg)": 299.9987398525808,
        "Satellite Name": "Test1 1325",
        "Satellite Number": 1325,
        "Semi-Major Axis(m)": 6980739.136638005,
        "Time(s)": 30
    },
    {
        "Altitude(m)": 612073.5605483089,
        "Argument of Periapsis(deg)": 0.0004167578365318562,
        "Eccentricity": 0.0,
        "Inclination(deg)": 60.0,
        "Latitude(deg)": 59.64786564504449,
        "Longitude(deg)": -81.44215408044558,
        "Mean Anomaly(deg)": -275.7013754181527,
        "RAAN(deg)": 299.99831980344106,
        "Satellite Name": "Test1 1325",
        "Satellite Number": 1325,
        "Semi-Major Axis(m)": 6980739.136638005,
        "Time(s)": 40
    },
    {
        "Altitude(m)": 612094.7307496786,
        "Argument of Periapsis(deg)": 0.0005209472956648203,
        "Eccentricity": 0.0,
        "Inclination(deg)": 60.0,
        "Latitude(deg)": 59.74743875098695,
        "Longitude(deg)": -80.27460945181903,
        "Mean Anomaly(deg)": -275.0812692726908,
        "RAAN(deg)": 299.9978997543013,
        "Satellite Name": "Test1 1325",
        "Satellite Number": 1325,
        "Semi-Major Axis(m)": 6980739.136638005,
        "Time(s)": 50
    },
    {
        "Altitude(m)": 612113.5033852115,
        "Argument of Periapsis(deg)": 0.0006251367547977843,
        "Eccentricity": 0.0,
        "Inclination(deg)": 60.0,
        "Latitude(deg)": 59.83583025108176,
        "Longitude(deg)": -79.1002617553067,
        "Mean Anomaly(deg)": -274.461163127229,
        "RAAN(deg)": 299.99747970516154,
        "Satellite Name": "Test1 1325",
        "Satellite Number": 1325,
        "Semi-Major Axis(m)": 6980739.136638005,
        "Time(s)": 60
    },
    {
        "Altitude(m)": 612129.8677164497,
        "Argument of Periapsis(deg)": 0.0007293262139307483,
        "Eccentricity": 0.0,
        "Inclination(deg)": 60.0,
        "Latitude(deg)": 59.912941523517276,
        "Longitude(deg)": -77.9198704406801,
        "Mean Anomaly(deg)": -273.84105698176717,
        "RAAN(deg)": 299.99705965602186,
        "Satellite Name": "Test1 1325",
        "Satellite Number": 1325,
        "Semi-Major Axis(m)": 6980739.136638005,
        "Time(s)": 70
    },
    {
        "Altitude(m)": 612143.8143893076,
        "Argument of Periapsis(deg)": 0.0008335156730637124,
        "Eccentricity": 0.0,
        "Inclination(deg)": 60.0,
        "Latitude(deg)": 59.97868558584437,
        "Longitude(deg)": -76.73422216178659,
        "Mean Anomaly(deg)": -273.22095083630535,
        "RAAN(deg)": 299.99663960688207,
        "Satellite Name": "Test1 1325",
        "Satellite Number": 1325,
        "Semi-Major Axis(m)": 6980739.136638005,
        "Time(s)": 80
    },
    {
        "Altitude(m)": 612155.3354385082,
        "Argument of Periapsis(deg)": 0.0009377051321966765,
        "Eccentricity": 0.0,
        "Inclination(deg)": 60.0,
        "Latitude(deg)": 60.03298757255424,
        "Longitude(deg)": -75.54412715887958,
        "Mean Anomaly(deg)": -272.60084469084353,
        "RAAN(deg)": 299.99621955774234,
        "Satellite Name": "Test1 1325",
        "Satellite Number": 1325,
        "Semi-Major Axis(m)": 6980739.136638005,
        "Time(s)": 90
    },
    {
        "Altitude(m)": 612164.4242912967,
        "Argument of Periapsis(deg)": 0.0010418945913296407,
        "Eccentricity": 0.0,
        "Inclination(deg)": 60.0,
        "Latitude(deg)": 60.07578515277168,
        "Longitude(deg)": -74.35041538385902,
        "Mean Anomaly(deg)": -271.9807385453817,
        "RAAN(deg)": 299.9957995086026,
        "Satellite Name": "Test1 1325",
        "Satellite Number": 1325,
        "Semi-Major Axis(m)": 6980739.136638005,
        "Time(s)": 100
    },
    {
        "Altitude(m)": 612171.0757705505,
        "Argument of Periapsis(deg)": 0.0011460840504626045,
        "Eccentricity": 0.0,
        "Inclination(deg)": 60.0,
        "Latitude(deg)": 60.10702888272102,
        "Longitude(deg)": -73.15393391369808,
        "Mean Anomaly(deg)": -271.3606323999199,
        "RAAN(deg)": 299.99537945946287,
        "Satellite Name": "Test1 1325",
        "Satellite Number": 1325,
        "Semi-Major Axis(m)": 6980739.136638005,
        "Time(s)": 110
    },
    {
        "Altitude(m)": 612175.2860972174,
        "Argument of Periapsis(deg)": 0.0012502735095955685,
        "Eccentricity": 0.0,
        "Inclination(deg)": 60.0,
        "Latitude(deg)": 60.12668248837107,
        "Longitude(deg)": -71.9555426633036,
        "Mean Anomaly(deg)": -270.7405262544581,
        "RAAN(deg)": 299.99495941032313,
        "Satellite Name": "Test1 1325",
        "Satellite Number": 1325,
        "Semi-Major Axis(m)": 6980739.136638005,
        "Time(s)": 120
    },
    {
        "Altitude(m)": 612177.0528920904,
        "Argument of Periapsis(deg)": 0.0013544629687285324,
        "Eccentricity": 0.0,
        "Inclination(deg)": 60.0,
        "Latitude(deg)": 60.134723074517034,
        "Longitude(deg)": -70.75610995157591,
        "Mean Anomaly(deg)": -270.1204201089962,
        "RAAN(deg)": 299.99453936118334,
        "Satellite Name": "Test1 1325",
        "Satellite Number": 1325,
        "Semi-Major Axis(m)": 6980739.136638005,
        "Time(s)": 130
    },
    {
        "Altitude(m)": 612176.3751769227,
        "Argument of Periapsis(deg)": 0.0014586524278614966,
        "Eccentricity": 0.0,
        "Inclination(deg)": 60.0,
        "Latitude(deg)": 60.131141257498896,
        "Longitude(deg)": -69.55650947754513,
        "Mean Anomaly(deg)": -269.5003139635344,
        "RAAN(deg)": 299.9941193120436,
        "Satellite Name": "Test1 1325",
        "Satellite Number": 1325,
        "Semi-Major Axis(m)": 6980739.136638005,
        "Time(s)": 140
    },
    {
        "Altitude(m)": 612173.253374888,
        "Argument of Periapsis(deg)": 0.0015628418869944607,
        "Eccentricity": 0.0,
        "Inclination(deg)": 60.0,
        "Latitude(deg)": 60.115941219765595,
        "Longitude(deg)": -68.35761572705485,
        "Mean Anomaly(deg)": -268.88020781807256,
        "RAAN(deg)": 299.99369926290393,
        "Satellite Name": "Test1 1325",
        "Satellite Number": 1325,
        "Semi-Major Axis(m)": 6980739.136638005,
        "Time(s)": 150
    },
    {
        "Altitude(m)": 612167.6893103716,
        "Argument of Periapsis(deg)": 0.0016670313461274247,
        "Eccentricity": 0.0,
        "Inclination(deg)": 60.0,
        "Latitude(deg)": 60.08914068554507,
        "Longitude(deg)": -67.16029937029364,
        "Mean Anomaly(deg)": -268.2601016726107,
        "RAAN(deg)": 299.99327921376414,
        "Satellite Name": "Test1 1325",
        "Satellite Number": 1325,
        "Semi-Major Axis(m)": 6980739.136638005,
        "Time(s)": 160
    },
    {
        "Altitude(m)": 612159.6862081182,
        "Argument of Periapsis(deg)": 0.0017712208052603888,
        "Eccentricity": 0.0,
        "Inclination(deg)": 60.0,
        "Latitude(deg)": 60.05077081794917,
        "Longitude(deg)": -65.96542421067312,
        "Mean Anomaly(deg)": -267.6399955271488,
        "RAAN(deg)": 299.9928591646244,
        "Satellite Name": "Test1 1325",
        "Satellite Number": 1325,
        "Semi-Major Axis(m)": 6980739.136638005,
        "Time(s)": 170
    },
    {
        "Altitude(m)": 612149.248691702,
        "Argument of Periapsis(deg)": 0.001875410264393353,
        "Eccentricity": 0.0,
        "Inclination(deg)": 60.0,
        "Latitude(deg)": 60.00087603890697,
        "Longitude(deg)": -64.77384270611195,
        "Mean Anomaly(deg)": -267.01988938168705,
        "RAAN(deg)": 299.9924391154847,
        "Satellite Name": "Test1 1325",
        "Satellite Number": 1325,
        "Semi-Major Axis(m)": 6980739.136638005,
        "Time(s)": 180
    },
    {
        "Altitude(m)": 612136.3827813435,
        "Argument of Periapsis(deg)": 0.0019795997235263173,
        "Eccentricity": 0.0,
        "Inclination(deg)": 60.0,
        "Latitude(deg)": 59.939513774345414,
        "Longitude(deg)": -63.58639162055752,
        "Mean Anomaly(deg)": -266.3997832362252,
        "RAAN(deg)": 299.99201906634494,
        "Satellite Name": "Test1 1325",
        "Satellite Number": 1325,
        "Semi-Major Axis(m)": 6980739.136638005,
        "Time(s)": 190
    }
]